{
  "type": "FeatureCollection",
  "features": [
    {
      "type": "Feature",
      "properties": {
        "norad_id": 24876,
        "name": "GPS BIIR-2  (PRN 13)",
        "group": "gnss",
        "lat": 35.83390539110782,
        "lon": -103.60087071836021,
        "alt_km": 20122.42249641129,
        "timestamp": "2025-12-17T21:39:45.932344+00:00",
        "meta_object_name": "GPS BIIR-2  (PRN 13)",
        "meta_object_id": "1997-035A",
        "meta_epoch": "2025-12-16T17:18:41.060448",
        "meta_mean_motion": 2.00563709,
        "meta_eccentricity": 0.00967839,
        "meta_inclination": 55.8971,
        "meta_ra_of_asc_node": 105.7131,
        "meta_arg_of_pericenter": 56.9876,
        "meta_mean_anomaly": 303.9087,
        "meta_ephemeris_type": 0,
        "meta_classification_type": "U",
        "meta_norad_cat_id": 24876,
        "meta_element_set_no": 999,
        "meta_rev_at_epoch": 20829,
        "meta_bstar": 0,
        "meta_mean_motion_dot": -2.3e-07,
        "meta_mean_motion_ddot": 0,
        "tle_line1": "1 24876U 97035A   25350.72130857 -.00000023  00000+0  00000+0 0  9993",
        "tle_line2": "2 24876  55.8971 105.7131 0096783  56.9876 303.9087  2.00563709208299"
      },
      "geometry": {
        "type": "Point",
        "coordinates": [
          -103.60087071836021,
          35.83390539110782
        ]
      }
    },
    {
      "type": "Feature",
      "properties": {
        "norad_id": 26360,
        "name": "GPS BIIR-4  (PRN 20)",
        "group": "gnss",
        "lat": -35.93329633031157,
        "lon": -122.91151396359784,
        "alt_km": 20087.051972699315,
        "timestamp": "2025-12-17T21:39:45.932393+00:00",
        "meta_object_name": "GPS BIIR-4  (PRN 20)",
        "meta_object_id": "2000-025A",
        "meta_epoch": "2025-12-16T19:52:20.548704",
        "meta_mean_motion": 2.00567475,
        "meta_eccentricity": 0.00388903,
        "meta_inclination": 55.0476,
        "meta_ra_of_asc_node": 26.6725,
        "meta_arg_of_pericenter": 242.3816,
        "meta_mean_anomaly": 287.5593,
        "meta_ephemeris_type": 0,
        "meta_classification_type": "U",
        "meta_norad_cat_id": 26360,
        "meta_element_set_no": 999,
        "meta_rev_at_epoch": 18761,
        "meta_bstar": 0,
        "meta_mean_motion_dot": -8.3e-07,
        "meta_mean_motion_ddot": 0,
        "tle_line1": "1 26360U 00025A   25350.82801561 -.00000083  00000+0  00000+0 0  9990",
        "tle_line2": "2 26360  55.0476  26.6725 0038890 242.3816 287.5593  2.00567475187616"
      },
      "geometry": {
        "type": "Point",
        "coordinates": [
          -122.91151396359784,
          -35.93329633031157
        ]
      }
    },
    {
      "type": "Feature",
      "properties": {
        "norad_id": 26407,
        "name": "GPS BIIR-5  (PRN 22)",
        "group": "gnss",
        "lat": 48.66461784571712,
        "lon": -84.56188666102989,
        "alt_km": 20362.908653649534,
        "timestamp": "2025-12-17T21:39:45.932409+00:00",
        "meta_object_name": "GPS BIIR-5  (PRN 22)",
        "meta_object_id": "2000-040A",
        "meta_epoch": "2025-12-17T13:07:08.215968",
        "meta_mean_motion": 2.00568099,
        "meta_eccentricity": 0.0125756,
        "meta_inclination": 54.8897,
        "meta_ra_of_asc_node": 222.3778,
        "meta_arg_of_pericenter": 301.8897,
        "meta_mean_anomaly": 226.5653,
        "meta_ephemeris_type": 0,
        "meta_classification_type": "U",
        "meta_norad_cat_id": 26407,
        "meta_element_set_no": 999,
        "meta_rev_at_epoch": 18630,
        "meta_bstar": 0,
        "meta_mean_motion_dot": 7.1e-07,
        "meta_mean_motion_ddot": 0,
        "tle_line1": "1 26407U 00040A   25351.54662287  .00000071  00000+0  00000+0 0  9995",
        "tle_line2": "2 26407  54.8897 222.3778 0125756 301.8897 226.5653  2.00568099186301"
      },
      "geometry": {
        "type": "Point",
        "coordinates": [
          -84.56188666102989,
          48.66461784571712
        ]
      }
    },
    {
      "type": "Feature",
      "properties": {
        "norad_id": 27663,
        "name": "GPS BIIR-8  (PRN 16)",
        "group": "gnss",
        "lat": -18.044540243884242,
        "lon": 55.40848223019248,
        "alt_km": 20523.87348078839,
        "timestamp": "2025-12-17T21:39:45.932423+00:00",
        "meta_object_name": "GPS BIIR-8  (PRN 16)",
        "meta_object_id": "2003-005A",
        "meta_epoch": "2025-12-17T15:19:29.390304",
        "meta_mean_motion": 2.00570709,
        "meta_eccentricity": 0.01476333,
        "meta_inclination": 54.9222,
        "meta_ra_of_asc_node": 222.1834,
        "meta_arg_of_pericenter": 51.8674,
        "meta_mean_anomaly": 318.886,
        "meta_ephemeris_type": 0,
        "meta_classification_type": "U",
        "meta_norad_cat_id": 27663,
        "meta_element_set_no": 999,
        "meta_rev_at_epoch": 16767,
        "meta_bstar": 0,
        "meta_mean_motion_dot": 7.2e-07,
        "meta_mean_motion_ddot": 0,
        "tle_line1": "1 27663U 03005A   25351.63853461  .00000072  00000+0  00000+0 0  9991",
        "tle_line2": "2 27663  54.9222 222.1834 0147633  51.8674 318.8860  2.00570709167678"
      },
      "geometry": {
        "type": "Point",
        "coordinates": [
          55.40848223019248,
          -18.044540243884242
        ]
      }
    },
    {
      "type": "Feature",
      "properties": {
        "norad_id": 28190,
        "name": "GPS BIIR-11 (PRN 19)",
        "group": "gnss",
        "lat": -0.242254445795505,
        "lon": -77.1772752714081,
        "alt_km": 20464.558372545867,
        "timestamp": "2025-12-17T21:39:45.932435+00:00",
        "meta_object_name": "GPS BIIR-11 (PRN 19)",
        "meta_object_id": "2004-009A",
        "meta_epoch": "2025-12-14T15:49:47.343936",
        "meta_mean_motion": 2.00560762,
        "meta_eccentricity": 0.01083648,
        "meta_inclination": 54.9839,
        "meta_ra_of_asc_node": 283.1415,
        "meta_arg_of_pericenter": 167.6892,
        "meta_mean_anomaly": 10.6801,
        "meta_ephemeris_type": 0,
        "meta_classification_type": "U",
        "meta_norad_cat_id": 28190,
        "meta_element_set_no": 999,
        "meta_rev_at_epoch": 15924,
        "meta_bstar": 0,
        "meta_mean_motion_dot": -7.9e-07,
        "meta_mean_motion_ddot": 0,
        "tle_line1": "1 28190U 04009A   25348.65957574 -.00000079  00000+0  00000+0 0  9998",
        "tle_line2": "2 28190  54.9839 283.1415 0108364 167.6892  10.6801  2.00560762159240"
      },
      "geometry": {
        "type": "Point",
        "coordinates": [
          -77.1772752714081,
          -0.242254445795505
        ]
      }
    },
    {
      "type": "Feature",
      "properties": {
        "norad_id": 28474,
        "name": "GPS BIIR-13 (PRN 02)",
        "group": "gnss",
        "lat": 46.52549816556986,
        "lon": 19.27028144044073,
        "alt_km": 20344.956641505836,
        "timestamp": "2025-12-17T21:39:45.932449+00:00",
        "meta_object_name": "GPS BIIR-13 (PRN 02)",
        "meta_object_id": "2004-045A",
        "meta_epoch": "2025-12-17T13:48:23.319360",
        "meta_mean_motion": 2.00569852,
        "meta_eccentricity": 0.01708441,
        "meta_inclination": 55.2383,
        "meta_ra_of_asc_node": 332.2112,
        "meta_arg_of_pericenter": 309.4586,
        "meta_mean_anomaly": 234.4084,
        "meta_ephemeris_type": 0,
        "meta_classification_type": "U",
        "meta_norad_cat_id": 28474,
        "meta_element_set_no": 999,
        "meta_rev_at_epoch": 15478,
        "meta_bstar": 0,
        "meta_mean_motion_dot": -8.8e-07,
        "meta_mean_motion_ddot": 0,
        "tle_line1": "1 28474U 04045A   25351.57526990 -.00000088  00000+0  00000+0 0  9992",
        "tle_line2": "2 28474  55.2383 332.2112 0170844 309.4586 234.4084  2.00569852154783"
      },
      "geometry": {
        "type": "Point",
        "coordinates": [
          19.27028144044073,
          46.52549816556986
        ]
      }
    },
    {
      "type": "Feature",
      "properties": {
        "norad_id": 28874,
        "name": "GPS BIIRM-1 (PRN 17)",
        "group": "gnss",
        "lat": 16.910697870783014,
        "lon": -67.25567722313762,
        "alt_km": 20156.445781654686,
        "timestamp": "2025-12-17T21:39:45.932463+00:00",
        "meta_object_name": "GPS BIIRM-1 (PRN 17)",
        "meta_object_id": "2005-038A",
        "meta_epoch": "2025-12-15T21:22:37.236864",
        "meta_mean_motion": 2.00578274,
        "meta_eccentricity": 0.01315557,
        "meta_inclination": 55.0291,
        "meta_ra_of_asc_node": 280.574,
        "meta_arg_of_pericenter": 293.6034,
        "meta_mean_anomaly": 72.8859,
        "meta_ephemeris_type": 0,
        "meta_classification_type": "U",
        "meta_norad_cat_id": 28874,
        "meta_element_set_no": 999,
        "meta_rev_at_epoch": 14816,
        "meta_bstar": 0,
        "meta_mean_motion_dot": -6.8e-07,
        "meta_mean_motion_ddot": 0,
        "tle_line1": "1 28874U 05038A   25349.89070876 -.00000068  00000+0  00000+0 0  9996",
        "tle_line2": "2 28874  55.0291 280.5740 0131555 293.6034  72.8859  2.00578274148160"
      },
      "geometry": {
        "type": "Point",
        "coordinates": [
          -67.25567722313762,
          16.910697870783014
        ]
      }
    }
  ]
}